[
    {
        "Altitude(m)": 605459.0669950506,
        "Argument of Periapsis(deg)": 0.0,
        "Eccentricity": 0.0,
        "Inclination(deg)": 60.0,
        "Latitude(deg)": 27.988338024775082,
        "Longitude(deg)": 102.79858844028264,
        "Mean Anomaly(deg)": 32.72730000000001,
        "RAAN(deg)": 184.99999999999997,
        "Satellite Name": "Test1 816",
        "Satellite Number": 816,
        "Semi-Major Axis(m)": 6980739.136638005,
        "Time(s)": 0
    },
    {
        "Altitude(m)": 605535.8584566657,
        "Argument of Periapsis(deg)": 0.00010418945913296404,
        "Eccentricity": 0.0,
        "Inclination(deg)": 60.0,
        "Latitude(deg)": 28.50146747670052,
        "Longitude(deg)": 103.1555340128621,
        "Mean Anomaly(deg)": 33.34740614546182,
        "RAAN(deg)": 184.99957995086024,
        "Satellite Name": "Test1 816",
        "Satellite Number": 816,
        "Semi-Major Axis(m)": 6980739.136638005,
        "Time(s)": 10
    }
]